CTC1_L_00065016-03
1 56682U 22264CP  26070.40832176  .00000000  00000+0  00000-0 0  9998
2 56682  80.0000 180.0000 0000000   0.0000   0.0000 14.98995063    11
CTC1_L_00065016-04
1 56683U 25426AU  26070.40832176  .00000000  00000+0  00000-0 0  9992
2 56683  80.0000 180.0000 0000000   0.0000  90.0000 14.98995063    11
CTC1_L_00065017-01
1 56684U 26908PZ  26070.40832176  .00000000  00000+0  00000-0 0  9999
2 56684  80.0000 192.0000 0000000   0.0000 192.0000 14.98995063    18
CTC1_L_00065017-02
1 56685U 23359GD  26070.40832176  .00000000  00000+0  00000-0 0  9997
2 56685  80.0000 192.0000 0000000   0.0000 282.0000 14.98995063    19
CTC1_L_00065017-03
1 56686U 22827LD  26070.40832176  .00000000  00000+0  00000-0 0  9997
2 56686  80.0000 192.0000 0000000   0.0000  12.0000 14.98995063    11
CTC1_L_00065017-04
1 56687U 22828ZC  26070.40832176  .00000000  00000+0  00000-0 0  9999
2 56687  80.0000 192.0000 0000000   0.0000 102.0000 14.98995063    12
CTC1_L_00065018-01
1 56688U 24169CP  26070.40832176  .00000000  00000+0  00000-0 0  9990
2 56688  80.0000 204.0000 0000000   0.0000 204.0000 14.98995063    10
CTC1_L_00065018-02
1 56689U 22628LJ  26070.40832176  .00000000  00000+0  00000-0 0  9999
2 56689  80.0000 204.0000 0000000   0.0000 294.0000 14.98995063    10
CTC1_L_00065018-03
1 56690U 26877LT  26070.40832176  .00000000  00000+0  00000-0 0  9991
2 56690  80.0000 204.0000 0000000   0.0000  24.0000 14.98995063    13
CTC1_L_00065018-04
1 56691U 23586HW  26070.40832176  .00000000  00000+0  00000-0 0  9996
2 56691  80.0000 204.0000 0000000   0.0000 114.0000 14.98995063    14
CTC1_L_00065019-01
1 56692U 22370VE  26070.40832176  .00000000  00000+0  00000-0 0  9997
2 56692  80.0000 216.0000 0000000   0.0000 216.0000 14.98995063    11
CTC1_L_00065019-02
1 56693U 22462DI  26070.40832176  .00000000  00000+0  00000-0 0  9990
2 56693  80.0000 216.0000 0000000   0.0000 306.0000 14.98995063    12
CTC1_L_00065019-03
1 56694U 23796PN  26070.40832176  .00000000  00000+0  00000-0 0  9992
2 56694  80.0000 216.0000 0000000   0.0000  36.0000 14.98995063    13
CTC1_L_00065019-04
1 56695U 23763BG  26070.40832176  .00000000  00000+0  00000-0 0  9997
2 56695  80.0000 216.0000 0000000   0.0000 126.0000 14.98995063    14
CTC1_L_00065020-01
1 56696U 26977EW  26070.40832176  .00000000  00000+0  00000-0 0  9998
2 56696  80.0000 228.0000 0000000   0.0000 228.0000 14.98995063    11
CTC1_L_00065020-02
1 56697U 22961HA  26070.40832176  .00000000  00000+0  00000-0 0  9998
2 56697  80.0000 228.0000 0000000   0.0000 318.0000 14.98995063    12
CTC1_L_00065020-03
1 56698U 26040VF  26070.40832176  .00000000  00000+0  00000-0 0  9991
2 56698  80.0000 228.0000 0000000   0.0000  48.0000 14.98995063    13
CTC1_L_00065020-04
1 56699U 26720PY  26070.40832176  .00000000  00000+0  00000-0 0  9997
2 56699  80.0000 228.0000 0000000   0.0000 138.0000 14.98995063    14
CTC1_L_00065021-01
1 56700U 22244YT  26070.40832176  .00000000  00000+0  00000-0 0  9997
2 56700  80.0000 240.0000 0000000   0.0000 240.0000 14.98995063    15
CTC1_L_00065021-02
1 56701U 23416PH  26070.40832176  .00000000  00000+0  00000-0 0  9990
2 56701  80.0000 240.0000 0000000   0.0000 330.0000 14.98995063    16
CTC1_L_00065021-03
1 56702U 26488ZD  26070.40832176  .00000000  00000+0  00000-0 0  9993
2 56702  80.0000 240.0000 0000000   0.0000  60.0000 14.98995063    17
CTC1_L_00065021-04
1 56703U 26206HQ  26070.40832176  .00000000  00000+0  00000-0 0  9992
2 56703  80.0000 240.0000 0000000   0.0000 150.0000 14.98995063    18
CTC1_L_00065022-01
1 56704U 23599VE  26070.40832176  .00000000  00000+0  00000-0 0  9995
2 56704  80.0000 252.0000 0000000   0.0000 252.0000 14.98995063    15
CTC1_L_00065022-02
1 56705U 26544VQ  26070.40832176  .00000000  00000+0  00000-0 0  9999
2 56705  80.0000 252.0000 0000000   0.0000 342.0000 14.98995063    16
CTC1_L_00065022-03
1 56706U 24291ZT  26070.40832176  .00000000  00000+0  00000-0 0  9997
2 56706  80.0000 252.0000 0000000   0.0000  72.0000 14.98995063    17
CTC1_L_00065022-04
1 56707U 26462BI  26070.40832176  .00000000  00000+0  00000-0 0  9990
2 56707  80.0000 252.0000 0000000   0.0000 162.0000 14.98995063    18
CTC1_L_00065023-01
1 56708U 26771CC  26070.40832176  .00000000  00000+0  00000-0 0  9994
2 56708  80.0000 264.0000 0000000   0.0000 264.0000 14.98995063    15
CTC1_L_00065023-02
1 56709U 24151KK  26070.40832176  .00000000  00000+0  00000-0 0  9995
2 56709  80.0000 264.0000 0000000   0.0000 354.0000 14.98995063    16
CTC1_L_00065023-03
1 56710U 24257JM  26070.40832176  .00000000  00000+0  00000-0 0  9994
2 56710  80.0000 264.0000 0000000   0.0000  84.0000 14.98995063    18
CTC1_L_00065023-04
1 56711U 22217JR  26070.40832176  .00000000  00000+0  00000-0 0  9999
2 56711  80.0000 264.0000 0000000   0.0000 174.0000 14.98995063    19
CTC1_L_00065024-01
1 56712U 24473EB  26070.40832176  .00000000  00000+0  00000-0 0  9996
2 56712  80.0000 276.0000 0000000   0.0000 276.0000 14.98995063    16
CTC1_L_00065024-02
1 56713U 22053FM  26070.40832176  .00000000  00000+0  00000-0 0  9999
2 56713  80.0000 276.0000 0000000   0.0000   6.0000 14.98995063    18
CTC1_L_00065024-03
1 56714U 26588QE  26070.40832176  .00000000  00000+0  00000-0 0  9997
2 56714  80.0000 276.0000 0000000   0.0000  96.0000 14.98995063    18
CTC1_L_00065024-04
1 56715U 23555XF  26070.40832176  .00000000  00000+0  00000-0 0  9999
2 56715  80.0000 276.0000 0000000   0.0000 186.0000 14.98995063    19
CTC1_L_00065025-01
1 56716U 23012NE  26070.40832176  .00000000  00000+0  00000-0 0  9998
2 56716  80.0000 288.0000 0000000   0.0000 288.0000 14.98995063    16
CTC1_L_00065025-02
1 56717U 23389IG  26070.40832176  .00000000  00000+0  00000-0 0  9996
2 56717  80.0000 288.0000 0000000   0.0000  18.0000 14.98995063    18
CTC1_L_00065025-03
1 56718U 24696TJ  26070.40832176  .00000000  00000+0  00000-0 0  9999
2 56718  80.0000 288.0000 0000000   0.0000 108.0000 14.98995063    19
CTC1_L_00065025-04
1 56719U 26281KV  26070.40832176  .00000000  00000+0  00000-0 0  9992
2 56719  80.0000 288.0000 0000000   0.0000 198.0000 14.98995063    19
CTC1_L_00065026-01
1 56720U 26168NR  26070.40832176  .00000000  00000+0  00000-0 0  9998
2 56720  80.0000 300.0000 0000000   0.0000 300.0000 14.98995063    11
CTC1_L_00065026-02
1 56721U 23404OF  26070.40832176  .00000000  00000+0  00000-0 0  9999
2 56721  80.0000 300.0000 0000000   0.0000  30.0000 14.98995063    12
CTC1_L_00065026-03
1 56722U 25172KG  26070.40832176  .00000000  00000+0  00000-0 0  9994
2 56722  80.0000 300.0000 0000000   0.0000 120.0000 14.98995063    13
CTC1_L_00065026-04
1 56723U 23903VA  26070.40832176  .00000000  00000+0  00000-0 0  9995
2 56723  80.0000 300.0000 0000000   0.0000 210.0000 14.98995063    14
CTC1_L_00065027-01
1 56724U 26750XP  26070.40832176  .00000000  00000+0  00000-0 0  9999
2 56724  80.0000 312.0000 0000000   0.0000 312.0000 14.98995063    11
CTC1_L_00065027-02
1 56725U 22101PY  26070.40832176  .00000000  00000+0  00000-0 0  9996
2 56725  80.0000 312.0000 0000000   0.0000  42.0000 14.98995063    12
CTC1_L_00065027-03
1 56726U 23980DZ  26070.40832176  .00000000  00000+0  00000-0 0  9993
2 56726  80.0000 312.0000 0000000   0.0000 132.0000 14.98995063    13
CTC1_L_00065027-04
1 56727U 24830FN  26070.40832176  .00000000  00000+0  00000-0 0  9999
2 56727  80.0000 312.0000 0000000   0.0000 222.0000 14.98995063    14
CTC1_L_00065028-01
1 56728U 22053VR  26070.40832176  .00000000  00000+0  00000-0 0  9995
2 56728  80.0000 324.0000 0000000   0.0000 324.0000 14.98995063    11
CTC1_L_00065028-02
1 56729U 24461BT  26070.40832176  .00000000  00000+0  00000-0 0  9991
2 56729  80.0000 324.0000 0000000   0.0000  54.0000 14.98995063    12
CTC1_L_00065028-03
1 56730U 22142FB  26070.40832176  .00000000  00000+0  00000-0 0  9997
2 56730  80.0000 324.0000 0000000   0.0000 144.0000 14.98995063    14
CTC1_L_00065028-04
1 56731U 25341ZO  26070.40832176  .00000000  00000+0  00000-0 0  9992
2 56731  80.0000 324.0000 0000000   0.0000 234.0000 14.98995063    15
CTC1_L_00065029-01
1 56732U 24534RW  26070.40832176  .00000000  00000+0  00000-0 0  9996
2 56732  80.0000 336.0000 0000000   0.0000 336.0000 14.98995063    12
CTC1_L_00065029-02
1 56733U 26612KI  26070.40832176  .00000000  00000+0  00000-0 0  9996
2 56733  80.0000 336.0000 0000000   0.0000  66.0000 14.98995063    13
CTC1_L_00065029-03
1 56734U 22723ZZ  26070.40832176  .00000000  00000+0  00000-0 0  9996
2 56734  80.0000 336.0000 0000000   0.0000 156.0000 14.98995063    14
CTC1_L_00065029-04
1 56735U 26971CK  26070.40832176  .00000000  00000+0  00000-0 0  9996
2 56735  80.0000 336.0000 0000000   0.0000 246.0000 14.98995063    15
CTC1_L_00065030-01
1 56736U 25971GM  26070.40832176  .00000000  00000+0  00000-0 0  9996
2 56736  80.0000 348.0000 0000000   0.0000 348.0000 14.98995063    12
CTC1_L_00065030-02
1 56737U 26248NG  26070.40832176  .00000000  00000+0  00000-0 0  9995
2 56737  80.0000 348.0000 0000000   0.0000  78.0000 14.98995063    13
CTC1_L_00065030-03
1 56738U 22561KF  26070.40832176  .00000000  00000+0  00000-0 0  9990
2 56738  80.0000 348.0000 0000000   0.0000 168.0000 14.98995063    14
CTC1_L_00065030-04
1 56739U 22784QS  26070.40832176  .00000000  00000+0  00000-0 0  9998
2 56739  80.0000 348.0000 0000000   0.0000 258.0000 14.98995063    15
